{
  "type": "FeatureCollection",
  "features": [
    {
      "type": "Feature",
      "properties": {
        "norad_id": 66455,
        "name": "ATLAS 5 CENTAUR R/B",
        "group": "last-30-days",
        "lat": 0.6857094070061536,
        "lon": 105.88619389761418,
        "alt_km": 12381.269264428716,
        "timestamp": "2025-12-06T20:37:54.812342+00:00",
        "meta_object_name": "ATLAS 5 CENTAUR R/B",
        "meta_object_id": "2025-261B",
        "meta_epoch": "2025-12-06T05:50:34.532736",
        "meta_mean_motion": 2.28259369,
        "meta_eccentricity": 0.23295733,
        "meta_inclination": 6.1541,
        "meta_ra_of_asc_node": 292.2659,
        "meta_arg_of_pericenter": 185.1786,
        "meta_mean_anomaly": 206.5245,
        "meta_ephemeris_type": 0,
        "meta_classification_type": "U",
        "meta_norad_cat_id": 66455,
        "meta_element_set_no": 999,
        "meta_rev_at_epoch": 50,
        "meta_bstar": 0,
        "meta_mean_motion_dot": -6.9e-07,
        "meta_mean_motion_ddot": 0,
        "tle_line1": "1 66455U 25261B   25340.24345524 -.00000069  00000+0  00000+0 0  9999",
        "tle_line2": "2 66455   6.1541 292.2659 2329573 185.1786 206.5245  2.28259369   502"
      },
      "geometry": {
        "type": "Point",
        "coordinates": [
          105.88619389761418,
          0.6857094070061536
        ]
      }
    },
    {
      "type": "Feature",
      "properties": {
        "norad_id": 66456,
        "name": "STARLINK-35643",
        "group": "last-30-days",
        "lat": -36.96078030517154,
        "lon": -20.616911970664095,
        "alt_km": 427.3228366756639,
        "timestamp": "2025-12-06T20:37:54.812362+00:00",
        "meta_object_name": "STARLINK-35643",
        "meta_object_id": "2025-262A",
        "meta_epoch": "2025-12-06T14:00:01.999872",
        "meta_mean_motion": 15.48423166,
        "meta_eccentricity": 0.00011412,
        "meta_inclination": 43.0005,
        "meta_ra_of_asc_node": 107.1405,
        "meta_arg_of_pericenter": 277.5357,
        "meta_mean_anomaly": 222.8893,
        "meta_ephemeris_type": 0,
        "meta_classification_type": "U",
        "meta_norad_cat_id": 66456,
        "meta_element_set_no": 999,
        "meta_rev_at_epoch": 464,
        "meta_bstar": -0.043534398,
        "meta_mean_motion_dot": -0.02099872,
        "meta_mean_motion_ddot": 0,
        "tle_line1": "1 66456U 25262A   25340.58335648 -.02099872  00000+0 -43534-1 0  9998",
        "tle_line2": "2 66456  43.0005 107.1405 0001141 277.5357 222.8893 15.48423166  4640"
      },
      "geometry": {
        "type": "Point",
        "coordinates": [
          -20.616911970664095,
          -36.96078030517154
        ]
      }
    },
    {
      "type": "Feature",
      "properties": {
        "norad_id": 66457,
        "name": "STARLINK-35466",
        "group": "last-30-days",
        "lat": -39.88085870745561,
        "lon": -10.767393140851787,
        "alt_km": 419.87772768378545,
        "timestamp": "2025-12-06T20:37:54.812373+00:00",
        "meta_object_name": "STARLINK-35466",
        "meta_object_id": "2025-262B",
        "meta_epoch": "2025-12-06T14:00:01.999872",
        "meta_mean_motion": 15.50958088,
        "meta_eccentricity": 7.658e-05,
        "meta_inclination": 43.0004,
        "meta_ra_of_asc_node": 107.1263,
        "meta_arg_of_pericenter": 265.2967,
        "meta_mean_anomaly": 240.8087,
        "meta_ephemeris_type": 0,
        "meta_classification_type": "U",
        "meta_norad_cat_id": 66457,
        "meta_element_set_no": 999,
        "meta_rev_at_epoch": 464,
        "meta_bstar": -0.036037364,
        "meta_mean_motion_dot": -0.0192292,
        "meta_mean_motion_ddot": 0,
        "tle_line1": "1 66457U 25262B   25340.58335648 -.01922920  00000+0 -36037-1 0  9997",
        "tle_line2": "2 66457  43.0004 107.1263 0000765 265.2967 240.8087 15.50958088  4648"
      },
      "geometry": {
        "type": "Point",
        "coordinates": [
          -10.767393140851787,
          -39.88085870745561
        ]
      }
    },
    {
      "type": "Feature",
      "properties": {
        "norad_id": 66458,
        "name": "STARLINK-35684",
        "group": "last-30-days",
        "lat": -38.77496000531227,
        "lon": -14.934928825315271,
        "alt_km": 423.58571954334184,
        "timestamp": "2025-12-06T20:37:54.812386+00:00",
        "meta_object_name": "STARLINK-35684",
        "meta_object_id": "2025-262C",
        "meta_epoch": "2025-12-06T14:00:01.999872",
        "meta_mean_motion": 15.4974832,
        "meta_eccentricity": 7.832e-05,
        "meta_inclination": 43.0002,
        "meta_ra_of_asc_node": 107.1311,
        "meta_arg_of_pericenter": 248.2268,
        "meta_mean_anomaly": 255.7201,
        "meta_ephemeris_type": 0,
        "meta_classification_type": "U",
        "meta_norad_cat_id": 66458,
        "meta_element_set_no": 999,
        "meta_rev_at_epoch": 464,
        "meta_bstar": -0.04129339,
        "meta_mean_motion_dot": -0.02089027,
        "meta_mean_motion_ddot": 0,
        "tle_line1": "1 66458U 25262C   25340.58335648 -.02089027  00000+0 -41293-1 0  9991",
        "tle_line2": "2 66458  43.0002 107.1311 0000783 248.2268 255.7201 15.49748320  4643"
      },
      "geometry": {
        "type": "Point",
        "coordinates": [
          -14.934928825315271,
          -38.77496000531227
        ]
      }
    },
    {
      "type": "Feature",
      "properties": {
        "norad_id": 66459,
        "name": "STARLINK-35449",
        "group": "last-30-days",
        "lat": -40.5001719355034,
        "lon": -8.070539504677443,
        "alt_km": 417.65555124025377,
        "timestamp": "2025-12-06T20:37:54.812396+00:00",
        "meta_object_name": "STARLINK-35449",
        "meta_object_id": "2025-262D",
        "meta_epoch": "2025-12-06T14:00:01.999872",
        "meta_mean_motion": 15.50635549,
        "meta_eccentricity": 0.00011843,
        "meta_inclination": 43.0004,
        "meta_ra_of_asc_node": 107.121,
        "meta_arg_of_pericenter": 273.5934,
        "meta_mean_anomaly": 234.4593,
        "meta_ephemeris_type": 0,
        "meta_classification_type": "U",
        "meta_norad_cat_id": 66459,
        "meta_element_set_no": 999,
        "meta_rev_at_epoch": 464,
        "meta_bstar": -0.002939069,
        "meta_mean_motion_dot": -0.00169422,
        "meta_mean_motion_ddot": 0,
        "tle_line1": "1 66459U 25262D   25340.58335648 -.00169422  00000+0 -29391-2 0  9994",
        "tle_line2": "2 66459  43.0004 107.1210 0001184 273.5934 234.4593 15.50635549  4649"
      },
      "geometry": {
        "type": "Point",
        "coordinates": [
          -8.070539504677443,
          -40.5001719355034
        ]
      }
    },
    {
      "type": "Feature",
      "properties": {
        "norad_id": 66460,
        "name": "STARLINK-35424",
        "group": "last-30-days",
        "lat": -40.99748758492275,
        "lon": -5.629668530286996,
        "alt_km": 417.5540410349977,
        "timestamp": "2025-12-06T20:37:54.812407+00:00",
        "meta_object_name": "STARLINK-35424",
        "meta_object_id": "2025-262E",
        "meta_epoch": "2025-12-06T14:00:01.999872",
        "meta_mean_motion": 15.50591626,
        "meta_eccentricity": 0.00012549,
        "meta_inclination": 43.0004,
        "meta_ra_of_asc_node": 107.1165,
        "meta_arg_of_pericenter": 273.2095,
        "meta_mean_anomaly": 236.7723,
        "meta_ephemeris_type": 0,
        "meta_classification_type": "U",
        "meta_norad_cat_id": 66460,
        "meta_element_set_no": 999,
        "meta_rev_at_epoch": 464,
        "meta_bstar": -0.00074048245,
        "meta_mean_motion_dot": -0.0004356,
        "meta_mean_motion_ddot": 0,
        "tle_line1": "1 66460U 25262E   25340.58335648 -.00043560  00000+0 -74048-3 0  9990",
        "tle_line2": "2 66460  43.0004 107.1165 0001254 273.2095 236.7723 15.50591626  4640"
      },
      "geometry": {
        "type": "Point",
        "coordinates": [
          -5.629668530286996,
          -40.99748758492275
        ]
      }
    },
    {
      "type": "Feature",
      "properties": {
        "norad_id": 66461,
        "name": "STARLINK-35132",
        "group": "last-30-days",
        "lat": -41.44434191935466,
        "lon": -3.141787441437837,
        "alt_km": 417.6590396632928,
        "timestamp": "2025-12-06T20:37:54.812418+00:00",
        "meta_object_name": "STARLINK-35132",
        "meta_object_id": "2025-262F",
        "meta_epoch": "2025-12-06T14:00:01.999872",
        "meta_mean_motion": 15.50635137,
        "meta_eccentricity": 0.00011489,
        "meta_inclination": 43.0004,
        "meta_ra_of_asc_node": 107.1121,
        "meta_arg_of_pericenter": 267.9034,
        "meta_mean_anomaly": 243.9951,
        "meta_ephemeris_type": 0,
        "meta_classification_type": "U",
        "meta_norad_cat_id": 66461,
        "meta_element_set_no": 999,
        "meta_rev_at_epoch": 464,
        "meta_bstar": -0.0027276601,
        "meta_mean_motion_dot": -0.00157494,
        "meta_mean_motion_ddot": 0,
        "tle_line1": "1 66461U 25262F   25340.58335648 -.00157494  00000+0 -27277-2 0  9994",
        "tle_line2": "2 66461  43.0004 107.1121 0001148 267.9034 243.9951 15.50635137  4647"
      },
      "geometry": {
        "type": "Point",
        "coordinates": [
          -3.141787441437837,
          -41.44434191935466
        ]
      }
    }
  ]
}